CTC1_L_00584007-03
1 10062U 22094Q   26075.70039352  .00000000  00000+0  00000-0 0  9994
2 10062  55.0000 180.0000 0000000   0.0000 144.0000  6.70625815    10
CTC1_L_00584007-04
1 10063U 24845TG  26075.70039352  .00000000  00000+0  00000-0 0  9991
2 10063  55.0000 180.0000 0000000   0.0000 180.0000  6.70625815    11
CTC1_L_00584007-05
1 10064U 25755VT  26075.70039352  .00000000  00000+0  00000-0 0  9993
2 10064  55.0000 180.0000 0000000   0.0000 216.0000  6.70625815    12
CTC1_L_00584007-06
1 10065U 22985EH  26075.70039352  .00000000  00000+0  00000-0 0  9996
2 10065  55.0000 180.0000 0000000   0.0000 252.0000  6.70625815    13
CTC1_L_00584007-07
1 10066U 23761JE  26075.70039352  .00000000  00000+0  00000-0 0  9990
2 10066  55.0000 180.0000 0000000   0.0000 288.0000  6.70625815    13
CTC1_L_00584007-08
1 10067U 23911EC  26075.70039352  .00000000  00000+0  00000-0 0  9998
2 10067  55.0000 180.0000 0000000   0.0000 324.0000  6.70625815    15
CTC1_L_00584007-09
1 10068U 26633DO  26075.70039352  .00000000  00000+0  00000-0 0  9993
2 10068  55.0000 180.0000 0000000   0.0000   0.0000  6.70625815    17
CTC1_L_00584007-10
1 10069U 24697TU  26075.70039352  .00000000  00000+0  00000-0 0  9992
2 10069  55.0000 180.0000 0000000   0.0000  36.0000  6.70625815    17
CTC1_L_00584008-01
1 10070U 26987DB  26075.70039352  .00000000  00000+0  00000-0 0  9998
2 10070  55.0000 210.0000 0000000   0.0000  84.0000  6.70625815    16
CTC1_L_00584008-02
1 10071U 25287VF  26075.70039352  .00000000  00000+0  00000-0 0  9991
2 10071  55.0000 210.0000 0000000   0.0000 120.0000  6.70625815    18
CTC1_L_00584008-03
1 10072U 24696ST  26075.70039352  .00000000  00000+0  00000-0 0  9995
2 10072  55.0000 210.0000 0000000   0.0000 156.0000  6.70625815    18
CTC1_L_00584008-04
1 10073U 26820PQ  26075.70039352  .00000000  00000+0  00000-0 0  9997
2 10073  55.0000 210.0000 0000000   0.0000 192.0000  6.70625815    19
CTC1_L_00584008-05
1 10074U 24783KV  26075.70039352  .00000000  00000+0  00000-0 0  9994
2 10074  55.0000 210.0000 0000000   0.0000 228.0000  6.70625815    10
CTC1_L_00584008-06
1 10075U 24198CM  26075.70039352  .00000000  00000+0  00000-0 0  9995
2 10075  55.0000 210.0000 0000000   0.0000 264.0000  6.70625815    11
CTC1_L_00584008-07
1 10076U 22298NW  26075.70039352  .00000000  00000+0  00000-0 0  9995
2 10076  55.0000 210.0000 0000000   0.0000 300.0000  6.70625815    13
CTC1_L_00584008-08
1 10077U 25922XP  26075.70039352  .00000000  00000+0  00000-0 0  9993
2 10077  55.0000 210.0000 0000000   0.0000 336.0000  6.70625815    13
CTC1_L_00584008-09
1 10078U 25066PG  26075.70039352  .00000000  00000+0  00000-0 0  9993
2 10078  55.0000 210.0000 0000000   0.0000  12.0000  6.70625815    15
CTC1_L_00584008-10
1 10079U 25939HX  26075.70039352  .00000000  00000+0  00000-0 0  9993
2 10079  55.0000 210.0000 0000000   0.0000  48.0000  6.70625815    15
CTC1_L_00584009-01
1 10080U 25549SK  26075.70039352  .00000000  00000+0  00000-0 0  9992
2 10080  55.0000 240.0000 0000000   0.0000  96.0000  6.70625815    13
CTC1_L_00584009-02
1 10081U 22470DF  26075.70039352  .00000000  00000+0  00000-0 0  9993
2 10081  55.0000 240.0000 0000000   0.0000 132.0000  6.70625815    15
CTC1_L_00584009-03
1 10082U 24652RS  26075.70039352  .00000000  00000+0  00000-0 0  9998
2 10082  55.0000 240.0000 0000000   0.0000 168.0000  6.70625815    15
CTC1_L_00584009-04
1 10083U 25639EP  26075.70039352  .00000000  00000+0  00000-0 0  9995
2 10083  55.0000 240.0000 0000000   0.0000 204.0000  6.70625815    17
CTC1_L_00584009-05
1 10084U 25088SD  26075.70039352  .00000000  00000+0  00000-0 0  9994
2 10084  55.0000 240.0000 0000000   0.0000 240.0000  6.70625815    18
CTC1_L_00584009-06
1 10085U 25487LX  26075.70039352  .00000000  00000+0  00000-0 0  9998
2 10085  55.0000 240.0000 0000000   0.0000 276.0000  6.70625815    18
CTC1_L_00584009-07
1 10086U 26227K   26075.70039352  .00000000  00000+0  00000-0 0  9992
2 10086  55.0000 240.0000 0000000   0.0000 312.0000  6.70625815    10
CTC1_L_00584009-08
1 10087U 23397FM  26075.70039352  .00000000  00000+0  00000-0 0  9998
2 10087  55.0000 240.0000 0000000   0.0000 348.0000  6.70625815    10
CTC1_L_00584009-09
1 10088U 26180DB  26075.70039352  .00000000  00000+0  00000-0 0  9992
2 10088  55.0000 240.0000 0000000   0.0000  24.0000  6.70625815    12
CTC1_L_00584009-10
1 10089U 25809ET  26075.70039352  .00000000  00000+0  00000-0 0  9990
2 10089  55.0000 240.0000 0000000   0.0000  60.0000  6.70625815    13
CTC1_L_00584010-01
1 10090U 22950LE  26075.70039352  .00000000  00000+0  00000-0 0  9996
2 10090  55.0000 270.0000 0000000   0.0000 108.0000  6.70625815    11
CTC1_L_00584010-02
1 10091U 23940EJ  26075.70039352  .00000000  00000+0  00000-0 0  9997
2 10091  55.0000 270.0000 0000000   0.0000 144.0000  6.70625815    12
CTC1_L_00584010-03
1 10092U 26235ZS  26075.70039352  .00000000  00000+0  00000-0 0  9998
2 10092  55.0000 270.0000 0000000   0.0000 180.0000  6.70625815    13
CTC1_L_00584010-04
1 10093U 22838YG  26075.70039352  .00000000  00000+0  00000-0 0  9994
2 10093  55.0000 270.0000 0000000   0.0000 216.0000  6.70625815    14
CTC1_L_00584010-05
1 10094U 26596LP  26075.70039352  .00000000  00000+0  00000-0 0  9990
2 10094  55.0000 270.0000 0000000   0.0000 252.0000  6.70625815    15
CTC1_L_00584010-06
1 10095U 25828OM  26075.70039352  .00000000  00000+0  00000-0 0  9998
2 10095  55.0000 270.0000 0000000   0.0000 288.0000  6.70625815    15
CTC1_L_00584010-07
1 10096U 22001LR  26075.70039352  .00000000  00000+0  00000-0 0  9999
2 10096  55.0000 270.0000 0000000   0.0000 324.0000  6.70625815    17
CTC1_L_00584010-08
1 10097U 24650HI  26075.70039352  .00000000  00000+0  00000-0 0  9992
2 10097  55.0000 270.0000 0000000   0.0000   0.0000  6.70625815    19
CTC1_L_00584010-09
1 10098U 25001DA  26075.70039352  .00000000  00000+0  00000-0 0  9994
2 10098  55.0000 270.0000 0000000   0.0000  36.0000  6.70625815    19
CTC1_L_00584010-10
1 10099U 26801IC  26075.70039352  .00000000  00000+0  00000-0 0  9994
2 10099  55.0000 270.0000 0000000   0.0000  72.0000  6.70625815    10
CTC1_L_00584011-01
1 10100U 23322C   26075.70039352  .00000000  00000+0  00000-0 0  9992
2 10100  55.0000 300.0000 0000000   0.0000 120.0000  6.70625815    11
CTC1_L_00584011-02
1 10101U 23673SX  26075.70039352  .00000000  00000+0  00000-0 0  9992
2 10101  55.0000 300.0000 0000000   0.0000 156.0000  6.70625815    11
CTC1_L_00584011-03
1 10102U 23605TN  26075.70039352  .00000000  00000+0  00000-0 0  9998
2 10102  55.0000 300.0000 0000000   0.0000 192.0000  6.70625815    12
CTC1_L_00584011-04
1 10103U 25408DU  26075.70039352  .00000000  00000+0  00000-0 0  9992
2 10103  55.0000 300.0000 0000000   0.0000 228.0000  6.70625815    13
CTC1_L_00584011-05
1 10104U 25632OT  26075.70039352  .00000000  00000+0  00000-0 0  9992
2 10104  55.0000 300.0000 0000000   0.0000 264.0000  6.70625815    14
CTC1_L_00584011-06
1 10105U 22556TU  26075.70039352  .00000000  00000+0  00000-0 0  9995
2 10105  55.0000 300.0000 0000000   0.0000 300.0000  6.70625815    16
CTC1_L_00584011-07
1 10106U 25029KL  26075.70039352  .00000000  00000+0  00000-0 0  9994
2 10106  55.0000 300.0000 0000000   0.0000 336.0000  6.70625815    16
CTC1_L_00584011-08
1 10107U 22128LO  26075.70039352  .00000000  00000+0  00000-0 0  9992
2 10107  55.0000 300.0000 0000000   0.0000  12.0000  6.70625815    18
CTC1_L_00584011-09
1 10108U 23983VS  26075.70039352  .00000000  00000+0  00000-0 0  9993
2 10108  55.0000 300.0000 0000000   0.0000  48.0000  6.70625815    18
CTC1_L_00584011-10
1 10109U 26580DY  26075.70039352  .00000000  00000+0  00000-0 0  9990
2 10109  55.0000 300.0000 0000000   0.0000  84.0000  6.70625815    19
CTC1_L_00584012-01
1 10110U 23219OJ  26075.70039352  .00000000  00000+0  00000-0 0  9998
2 10110  55.0000 330.0000 0000000   0.0000 132.0000  6.70625815    18
CTC1_L_00584012-02
1 10111U 24964ZP  26075.70039352  .00000000  00000+0  00000-0 0  9997
2 10111  55.0000 330.0000 0000000   0.0000 168.0000  6.70625815    18
CTC1_L_00584012-03
1 10112U 24287JI  26075.70039352  .00000000  00000+0  00000-0 0  9996
2 10112  55.0000 330.0000 0000000   0.0000 204.0000  6.70625815    10
CTC1_L_00584012-04
1 10113U 25933WB  26075.70039352  .00000000  00000+0  00000-0 0  9996
2 10113  55.0000 330.0000 0000000   0.0000 240.0000  6.70625815    11
CTC1_L_00584012-05
1 10114U 24811BZ  26075.70039352  .00000000  00000+0  00000-0 0  9991
2 10114  55.0000 330.0000 0000000   0.0000 276.0000  6.70625815    11
CTC1_L_00584012-06
1 10115U 26409PF  26075.70039352  .00000000  00000+0  00000-0 0  9997
2 10115  55.0000 330.0000 0000000   0.0000 312.0000  6.70625815    13
CTC1_L_00584012-07
1 10116U 25033RB  26075.70039352  .00000000  00000+0  00000-0 0  9990
2 10116  55.0000 330.0000 0000000   0.0000 348.0000  6.70625815    13
CTC1_L_00584012-08
1 10117U 24278MJ  26075.70039352  .00000000  00000+0  00000-0 0  9991
2 10117  55.0000 330.0000 0000000   0.0000  24.0000  6.70625815    15
CTC1_L_00584012-09
1 10118U 23894ZU  26075.70039352  .00000000  00000+0  00000-0 0  9995
2 10118  55.0000 330.0000 0000000   0.0000  60.0000  6.70625815    16
CTC1_L_00584012-10
1 10119U 24075AE  26075.70039352  .00000000  00000+0  00000-0 0  9998
2 10119  55.0000 330.0000 0000000   0.0000  96.0000  6.70625815    16
